      3.04          N: GNSS NAV DATA    M: Mixed            RINEX VERSION / TYPE
rineditnav          gnsstk              20211013 185843 UTC PGM / RUN BY / DATE
Merged GPS/GLO/GAL/BDS/QZS/SBAS/IRNSS navigation file       COMMENT
based on CONGO and MGEX tracking data                       COMMENT
DLR/GSOC: O. Montenbruck; P. Steigenberger                  COMMENT
ARL:UT: B. Renfro - Stripped to GAL subset for testing      COMMENT
  E02-E12 were hand-edited (datasources and health) to      COMMENT
  support testing of health detemination                    COMMENT
GAUT   .9313225746D-09  .000000000D+00 345600 2107        0 TIME SYSTEM CORR
GLUT  -.0000000000D+00  .000000000D+00 345600 2107        0 TIME SYSTEM CORR
GPUT  -.9313225746D-09 -.355271368D-14  61440 2108        0 TIME SYSTEM CORR
QZUT  -.9313225746D-09  .000000000D+00   8192 2108        0 TIME SYSTEM CORR
    18     0     0     0                                    LEAP SECONDS
                                                            END OF HEADER
E01 2020 05 29 00 10 00 -.866217713337D-03 -.794386778580D-11  .000000000000D+00
      .810000000000D+02  .289062500000D+02  .278761611540D-08 -.493357395481D+00
      .128708779812D-05  .677260104567D-04  .831484794617D-05  .544060144997D+04
      .432600000000D+06  .391155481338D-07  .706687800361D+00 -.122934579849D-06
      .983006144414D+00  .174406250000D+03  .227924375867D+01 -.539451041730D-08
     -.506449667090D-09  .516000000000D+03  .210700000000D+04  .000000000000D+00
      .312000000000D+01  .000000000000D+00 -.186264514923D-08 -.209547579289D-08
      .433714000000D+06
E03 2020 05 29 00 10 00 -.303786946461D-03 -.416378043155D-11  .000000000000D+00
      .810000000000D+02 -.247500000000D+02  .329620872890D-08  .127534573383D+01
     -.101327896118D-05  .356237054802D-03  .112727284432D-04  .544062540626D+04
      .432600000000D+06 -.745058059692D-08 -.138929720530D+01  .130385160446D-07
      .953243754886D+00  .902812500000D+02 -.540238022899D+00 -.556201739464D-08
      .260725145963D-09  .516000000000D+03  .210700000000D+04  .000000000000D+00
      .312000000000D+01  .256000000000D+03  .931322574616D-09  .931322574616D-09
      .433264000000D+06
E04 2020 05 29 00 10 00 -.534759368747D-03 -.763122898206D-11  .000000000000D+00
      .810000000000D+02 -.397187500000D+02  .324584948837D-08 -.180582065401D+01
     -.196322798729D-05  .330272247083D-03  .100769102573D-04  .544062196159D+04
      .432600000000D+06 -.111758708954D-07 -.138922953949D+01 -.447034835815D-07
      .953287194775D+00  .117281250000D+03 -.137842145683D+01 -.549665752928D-08
      .171435712414D-09  .516000000000D+03  .210700000000D+04  .000000000000D+00
      .312000000000D+01  .384000000000D+03 -.512227416039D-08 -.582076609135D-08
      .433594000000D+06
E05 2020 05 29 00 10 00 -.376296171453D-03  .321165316564D-11  .000000000000D+00
      .810000000000D+02 -.187812500000D+02  .334763944262D-08  .273297040787D+01
     -.854954123497D-06  .258154934272D-03  .105611979961D-04  .544061970329D+04
      .432600000000D+06 -.335276126862D-07 -.138930899935D+01  .111758708954D-07
      .953257425855D+00  .110718750000D+03 -.120823423382D+01 -.553165898723D-08
      .250367571671D-09  .516000000000D+03  .210700000000D+04  .000000000000D+00
      .312000000000D+01  .640000000000D+02  .139698386192D-08  .162981450558D-08
      .433264000000D+06
E08 2020 05 29 00 10 00  .617166259326D-02 -.542854650121D-11  .000000000000D+00
      .810000000000D+02 -.430000000000D+02  .319584740559D-08  .653996629105D+00
     -.205077230930D-05  .377631629817D-03  .115483999252D-04  .544062142563D+04
      .432600000000D+06 -.540167093277D-07 -.139570573446D+01  .204890966415D-07
      .959222660114D+00  .861562500000D+02 -.705136040729D+00 -.547701385390D-08
      .234652631367D-09  .513000000000D+03  .210700000000D+04  .000000000000D+00
      .312000000000D+01  .600000000000D+01 -.582076609135D-08 -.675208866596D-08
      .433264000000D+06
E09 2020 05 29 00 10 00  .604628818110D-02 -.122355459098D-10  .000000000000D+00
      .810000000000D+02 -.325625000000D+02  .313155901343D-08  .305378599906D+01
     -.164657831192D-05  .455555855297D-03  .103060156107D-04  .544062422180D+04
      .432600000000D+06 -.335276126862D-07 -.139569732268D+01 -.279396772385D-07
      .959253012738D+00  .119062500000D+03 -.751202596661D+00 -.543665502993D-08
      .212866009581D-09  .513000000000D+03  .210700000000D+04  .000000000000D+00
     -.100000000000D+01  .000000000000D+00 -.465661287308D-09 -.698491930962D-09
      .433264000000D+06
E10 2020 05 29 00 10 00  .311630801298D-02  .234635422203D-09  .346944695195D-17
      .810000000000D+02 -.596875000000D+01  .289012038512D-08 -.237515055549D+01
     -.450760126114D-06  .458674971014D-03  .210106372833D-05  .544061139107D+04
      .432600000000D+06  .651925802231D-07  .278997192388D+01  .577419996262D-07
      .988364368612D+00  .304187500000D+03  .503528368538D+00 -.577202614234D-08
      .210365905441D-09  .258000000000D+03  .210700000000D+04  .000000000000D+00
      .312000000000D+01  .000000000000D+00 -.155996531248D-07 -.169966369867D-07
      .433264000000D+06
E12 2020 05 29 00 10 00  .578246329678D-02 -.187867499335D-10  .000000000000D+00
      .810000000000D+02  .796875000000D+01  .293333647095D-08 -.109806761229D+01
      .471249222755D-06  .424464233220D-03  .202283263207D-05  .544060509300D+04
      .432600000000D+06 -.260770320892D-07  .278996034342D+01  .298023223877D-07
      .988378371664D+00  .307375000000D+03  .306274773574D-01 -.573059584518D-08
      .244653047924D-09  .258000000000D+03  .210700000000D+04  .000000000000D+00
     -.100000000000D+01  .000000000000D+00 -.128056854010D-07 -.128056854010D-07
      .433264000000D+06
E14 2020 05 29 00 10 00 -.103020138340D-02 -.132871491587D-10  .000000000000D+00
      .810000000000D+02  .208031250000D+03  .398945189097D-08  .192534167990D+01
      .843778252602D-05  .166640632786D+00  .182911753655D-05  .528940647125D+04
      .432600000000D+06  .289641320705D-05  .208070405829D+01  .128522515297D-06
      .883152558460D+00  .227187500000D+03  .173467811395D+01 -.588774524822D-08
     -.300012496725D-10  .517000000000D+03  .210700000000D+04  .000000000000D+00
      .312000000000D+01  .390000000000D+03 -.512227416039D-08 -.582076609135D-08
      .433255000000D+06
E15 2020 05 29 00 10 00  .865444482770D-03 -.132160948851D-11  .000000000000D+00
      .810000000000D+02 -.225000000000D+01  .292190742346D-08  .273881987704D+01
      .130385160446D-07  .204279785976D-03  .152178108692D-05  .544060863876D+04
      .432600000000D+06 -.409781932831D-07  .278576280575D+01 -.279396772385D-07
      .991523954210D+00  .320937500000D+03 -.672837276019D+00 -.581309928178D-08
      .241795786051D-09  .517000000000D+03  .210700000000D+04  .000000000000D+00
      .312000000000D+01  .000000000000D+00  .419095158577D-08  .442378222942D-08
      .433765000000D+06
E18 2020 05 29 00 10 00 -.113009905908D-02 -.141398004416D-10  .000000000000D+00
      .810000000000D+02  .101312500000D+03  .436339603867D-08 -.126779057533D+01
      .679865479469D-05  .166844078573D+00  .755675137043D-05  .528937628746D+04
      .432600000000D+06 -.185146927834D-05  .209758824684D+01  .574253499508D-05
      .882499030530D+00  .224562500000D+03  .172024327159D+01 -.703172147085D-08
     -.101897101566D-08  .516000000000D+03  .210700000000D+04  .000000000000D+00
      .312000000000D+01  .390000000000D+03 -.325962901115D-08 -.395812094212D-08
      .433264000000D+06
E33 2020 05 29 00 10 00 -.466749072075D-03  .412114786741D-12  .000000000000D+00
      .810000000000D+02  .124687500000D+02  .298333855374D-08  .115712005607D+00
      .685453414917D-06  .237054424360D-03  .239908695221D-05  .544060421753D+04
      .432600000000D+06 -.949949026108D-07  .278575223909D+01 -.204890966415D-07
      .991562074929D+00  .306062500000D+03 -.404591603584D+00 -.576988319594D-08
      .233938315898D-09  .516000000000D+03  .210700000000D+04  .000000000000D+00
      .312000000000D+01  .000000000000D+00 -.512227416039D-08 -.582076609135D-08
      .433264000000D+06
